      2.10          N: GNSS NAV DATA                        RINEX VERSION / TYPE
fic2rin                                 01/11/2022 00:17:39 PGM / RUN BY / DATE
                                                            END OF HEADER
 8 22  1 10  1 59 44.0-5.152588710189e-05-1.591615728103e-12 0.000000000000e+00
    1.000000000000e+00-1.165625000000e+01 4.516259548909e-09 3.051062664412e+00
   -5.662441253662e-07 7.099115173332e-03 6.480142474174e-06 5.153705732346e+03
    9.358400000000e+04-1.508742570877e-07-2.363228460717e+00-1.676380634308e-08
    9.652052021566e-01 2.575312500000e+02 7.591598762275e-02-8.025691445120e-09
   -1.682212928064e-10 1.000000000000e+00 2.192000000000e+03 0.000000000000e+00
    2.400000000000e+00 0.000000000000e+00 5.122274160385e-09 1.000000000000e+00
    8.640000000000e+04 4.000000000000e+00
12 22  1 10  1 59 44.0-1.535206101835e-04-5.684341886081e-12 0.000000000000e+00
    5.200000000000e+01 5.184375000000e+01 4.628764235181e-09-5.802604216042e-01
    2.786517143250e-06 8.555957465433e-03 6.012618541718e-06 5.153620475769e+03
    9.358400000000e+04-8.568167686462e-08 2.964326725478e+00 9.313225746155e-08
    9.710656080946e-01 2.750000000000e+02 1.236382729195e+00-8.297845638578e-09
    8.393206753608e-11 1.000000000000e+00 2.192000000000e+03 0.000000000000e+00
    2.400000000000e+00 0.000000000000e+00-1.257285475731e-08 5.200000000000e+01
    8.640000000000e+04 4.000000000000e+00
26 22  1 10  1 59 44.0 1.729698851705e-04 3.410605131648e-12 0.000000000000e+00
    7.000000000000e+00 4.946875000000e+01 5.163786521007e-09-1.455135605244e+00
    2.382323145866e-06 6.746112019755e-03 5.548819899559e-06 5.153682107925e+03
    9.358400000000e+04 5.774199962616e-08 2.841788142854e+00-5.960464477539e-08
    9.392877607169e-01 2.573750000000e+02 3.454573783036e-01-8.440351574522e-09
    1.378628853997e-10 1.000000000000e+00 2.192000000000e+03 0.000000000000e+00
    2.400000000000e+00 0.000000000000e+00 6.984919309616e-09 7.000000000000e+00
    8.640000000000e+04 4.000000000000e+00
32 22  1 10  1 59 44.0-4.807859659195e-05-6.025402399246e-12 0.000000000000e+00
    5.700000000000e+01-4.553125000000e+01 4.511259340631e-09-2.620551498157e+00
   -2.322718501091e-06 5.399311892688e-03 8.111819624901e-06 5.153760665894e+03
    9.358400000000e+04-2.607703208923e-08 7.908539891002e-01-6.146728992462e-08
    9.578028849518e-01 2.212812500000e+02-2.378469556735e+00-7.937830642508e-09
   -3.500145795122e-11 1.000000000000e+00 2.192000000000e+03 0.000000000000e+00
    2.400000000000e+00 0.000000000000e+00 4.656612873077e-10 5.700000000000e+01
    8.640000000000e+04 4.000000000000e+00
21 22  1 10  1 59 44.0 1.557772047818e-04 7.958078640513e-13 0.000000000000e+00
    5.000000000000e+01-3.562500000000e+00 4.415541067866e-09 3.108491744564e+00
   -3.352761268616e-08 2.448437071871e-02 7.757917046547e-06 5.153602025986e+03
    9.358400000000e+04 1.639127731323e-07-1.373745408890e+00 4.097819328308e-07
    9.590250169557e-01 2.231562500000e+02-1.029180191177e+00-7.731393472143e-09
    4.964492505326e-11 1.000000000000e+00 2.192000000000e+03 0.000000000000e+00
    2.400000000000e+00 0.000000000000e+00-1.024454832077e-08 5.000000000000e+01
    8.640000000000e+04 4.000000000000e+00
25 22  1 10  1 59 44.0 2.686106599867e-04 5.570655048359e-12 0.000000000000e+00
    5.500000000000e+01 5.409375000000e+01 4.871631494435e-09-8.075160350042e-01
    3.004446625710e-06 1.033394376282e-02 5.910173058510e-06 5.153724994659e+03
    9.358400000000e+04 2.421438694000e-08 2.888081045859e+00 2.179294824600e-07
    9.584568839421e-01 2.669062500000e+02 9.708411174637e-01-8.382134863848e-09
    6.714565402886e-11 1.000000000000e+00 2.192000000000e+03 0.000000000000e+00
    2.400000000000e+00 0.000000000000e+00 5.587935447693e-09 5.500000000000e+01
    8.640000000000e+04 4.000000000000e+00
 2 22  1 10  2  0  0.0-6.482135504484e-04-1.023181539495e-12 0.000000000000e+00
    6.000000000000e+01-2.934375000000e+01 4.421255591613e-09 9.145010028089e-01
   -1.752749085426e-06 2.065813913941e-02 9.136274456978e-06 5.153674991608e+03
    9.360000000000e+04-2.812594175339e-07-1.372350760809e+00-2.682209014893e-07
    9.647858552263e-01 2.126875000000e+02-1.459834733645e+00-8.353562245112e-09
   -1.428630936784e-12 1.000000000000e+00 2.192000000000e+03 0.000000000000e+00
    2.400000000000e+00 0.000000000000e+00-1.769512891769e-08 6.000000000000e+01
    8.640000000000e+04 4.000000000000e+00
 1 22  1 10  2  0  0.0 4.613380879164e-04-9.890754881781e-12 0.000000000000e+00
    3.600000000000e+01-7.468750000000e+00 3.973379792931e-09 7.489772437142e-01
   -2.365559339523e-07 1.124187756795e-02 8.312985301018e-06 5.153673666000e+03
    9.360000000000e+04-1.247972249985e-07-1.283810909295e+00 1.098960638046e-07
    9.864462372396e-01 2.332500000000e+02 8.829464011188e-01-7.976403677801e-09
   -3.428714248282e-11 1.000000000000e+00 2.192000000000e+03 0.000000000000e+00
    2.400000000000e+00 0.000000000000e+00 5.122274160385e-09 3.600000000000e+01
    8.640000000000e+04 4.000000000000e+00
 3 22  1 10  2  0  0.0-7.229344919324e-05-1.455191522837e-11 0.000000000000e+00
    3.500000000000e+01-1.753125000000e+01 4.453042629957e-09-4.202194907542e-01
   -9.685754776001e-07 3.853951580822e-03 6.148591637611e-06 5.153700483322e+03
    9.360000000000e+04 3.166496753693e-08-2.483885154301e-01 5.215406417847e-08
    9.724217404687e-01 2.667187500000e+02 9.795406509428e-01-8.145696443810e-09
    1.210764718925e-10 1.000000000000e+00 2.192000000000e+03 0.000000000000e+00
    2.400000000000e+00 0.000000000000e+00 1.862645149231e-09 3.500000000000e+01
    8.640000000000e+04 4.000000000000e+00
 9 22  1 10  2  0  0.0-3.583766520023e-04 1.136868377216e-12 0.000000000000e+00
    1.000000000000e+01-3.606250000000e+01 4.703767359362e-09-2.906572763405e+00
   -1.812353730202e-06 2.348958631046e-03 8.272007107735e-06 5.153641267776e+03
    9.360000000000e+04 1.676380634308e-08 7.798128328717e-01 3.352761268616e-08
    9.539384771266e-01 2.170937500000e+02 1.859745523100e+00-8.074264896971e-09
   -1.507205638307e-10 1.000000000000e+00 2.192000000000e+03 0.000000000000e+00
    2.400000000000e+00 0.000000000000e+00 1.396983861923e-09 1.000000000000e+01
    8.640000000000e+04 4.000000000000e+00
 5 22  1 10  2  0  0.0-6.736069917679e-05-1.250555214938e-12 0.000000000000e+00
    9.400000000000e+01-1.262500000000e+01 4.674480425158e-09-2.889693326412e+00
   -6.519258022308e-07 5.895270965993e-03 6.433576345444e-06 5.153642452240e+03
    9.360000000000e+04 5.401670932770e-08-2.882892871260e-01-5.960464477539e-08
    9.594042960227e-01 2.550625000000e+02 1.014025031356e+00-8.098908780630e-09
    1.982225424788e-10 1.000000000000e+00 2.192000000000e+03 0.000000000000e+00
    2.400000000000e+00 0.000000000000e+00-1.117587089539e-08 9.400000000000e+01
    8.640000000000e+04 4.000000000000e+00
 4 22  1 10  2  0  0.0-1.956466585398e-04 1.705302565824e-12 0.000000000000e+00
    1.000000000000e+02-3.306250000000e+01 4.568761735836e-09 2.577684853161e+00
   -1.724809408188e-06 1.647500321269e-03 8.475035429001e-06 5.153662317276e+03
    9.360000000000e+04-3.725290298462e-08 8.324795485261e-01 2.793967723846e-08
    9.609269304180e-01 2.165312500000e+02-3.112059304367e+00-8.012119451221e-09
   -1.257195224370e-10 1.000000000000e+00 2.192000000000e+03 0.000000000000e+00
    2.400000000000e+00 0.000000000000e+00-4.190951585770e-09 1.000000000000e+02
    8.640000000000e+04 4.000000000000e+00
10 22  1 10  2  0  0.0-2.896799705923e-04-9.549694368616e-12 0.000000000000e+00
    4.800000000000e+01-1.628125000000e+01 4.319822795102e-09-1.254777392366e+00
   -9.145587682724e-07 7.421539979987e-03 6.249174475670e-06 5.153676427841e+03
    9.360000000000e+04 1.769512891769e-07-2.511869080172e-01-5.774199962616e-08
    9.722568125474e-01 2.655937500000e+02-2.539967243854e+00-7.980332412877e-09
    1.264338379054e-10 1.000000000000e+00 2.192000000000e+03 0.000000000000e+00
    2.400000000000e+00 0.000000000000e+00 2.328306436539e-09 4.800000000000e+01
    8.640000000000e+04 4.000000000000e+00
 7 22  1 10  2  0  0.0 3.002141602337e-04 3.751665644813e-12 0.000000000000e+00
    7.900000000000e+01 4.243750000000e+01 4.748412076137e-09 8.961553956693e-02
    2.315267920494e-06 1.541807164904e-02 9.760260581970e-06 5.153707393646e+03
    9.360000000000e+04-2.980232238770e-08 1.852042048117e+00 3.017485141754e-07
    9.506937482335e-01 1.889375000000e+02-2.296919328847e+00-8.332132781060e-09
    5.250218692682e-11 1.000000000000e+00 2.192000000000e+03 0.000000000000e+00
    2.400000000000e+00 0.000000000000e+00-1.117587089539e-08 7.900000000000e+01
    8.640000000000e+04 4.000000000000e+00
 6 22  1 10  2  0  0.0 1.664715819061e-04 1.080024958355e-11 0.000000000000e+00
    7.300000000000e+01-1.765625000000e+01 3.863375210799e-09 1.122005254514e+00
   -1.044943928719e-06 2.603515982628e-03 9.005889296532e-06 5.153650106430e+03
    9.360000000000e+04 2.421438694000e-08-1.292079647046e+00-2.980232238770e-08
    9.858314181213e-01 2.169687500000e+02-1.005046757854e+00-7.790324498285e-09
    4.785913638228e-11 1.000000000000e+00 2.192000000000e+03 0.000000000000e+00
    2.400000000000e+00 0.000000000000e+00 4.190951585770e-09 7.300000000000e+01
    8.640000000000e+04 4.000000000000e+00
31 22  1 10  2  0  0.0-1.592021435499e-04-1.818989403546e-12 0.000000000000e+00
    3.100000000000e+01 3.146875000000e+01 4.596977196838e-09-3.619351301767e-01
    1.864507794380e-06 1.045826356858e-02 8.957460522652e-06 5.153673439026e+03
    9.360000000000e+04 1.341104507446e-07 1.869993874282e+00 5.587935447693e-08
    9.549442084365e-01 2.019062500000e+02 3.640692511628e-01-8.179983586293e-09
    8.607501394126e-11 1.000000000000e+00 2.192000000000e+03 0.000000000000e+00
    2.400000000000e+00 0.000000000000e+00-1.303851604462e-08 3.100000000000e+01
    8.640000000000e+04 4.000000000000e+00
